KUIPER-00053            
1 64513U 25134P   25218.94543441  .00015073  00000+0  42267-3 0  9995
2 64513  51.8775 116.1755 0001789 240.6657 119.4151 15.36787118  8080
KUIPER-00054            
1 64514U 25134Q   25218.88631634  .00034132  00000+0  94764-3 0  9997
2 64514  51.8763 116.5262 0002578 250.2695 109.8013 15.36577662  8071
KUIPER-00055            
1 64515U 25134R   25218.73768289  .00041435  00000+0  11214-2 0  9991
2 64515  51.8773 117.0368 0000721 220.3475 139.7459 15.37280506  8051
KUIPER-00056            
1 64516U 25134S   25218.89286985  .00028889  00000+0  81027-3 0  9995
2 64516  51.8750 116.5615 0002892 256.4593 103.6071 15.36345240  8076
KUIPER-00057            
1 64517U 25134T   25218.91886817  .00025350  00000+0  74315-3 0  9991
2 64517  51.8718 116.7157 0006459 267.0076  93.0170 15.35016685  8070
KUIPER-00058            
1 64518U 25134U   25218.90254009  .00030794  00000+0  87008-3 0  9994
2 64518  51.8728 116.6209 0004520 265.9347  94.1122 15.36076522  8070
KUIPER-00059            
1 64519U 25134V   25218.93501018  .00029101  00000+0  79523-3 0  9996
2 64519  51.8781 116.1059 0002241 198.6839 161.4066 15.37153482  8082
KUIPER-00060            
1 64520U 25134W   25218.94109260  .00021091  00000+0  58298-3 0  9998
2 64520  51.8764 116.1467 0002078 208.5567 151.5306 15.36986493  8076
