<?xml version="1.0" encoding="UTF-8"?>
<ndm xmlns:xsi="http://www.w3.org/2001/XMLSchema-instance" xsi:noNamespaceSchemaLocation="https://sanaregistry.org/r/ndmxml_unqualified/ndmxml-2.0.0-master-2.0.xsd">
<omm id="CCSDS_OMM_VERS" version="2.0">
<header><CREATION_DATE/><ORIGINATOR/></header><body><segment><metadata><OBJECT_NAME>KUIPER-00053</OBJECT_NAME><OBJECT_ID>2025-134P</OBJECT_ID><CENTER_NAME>EARTH</CENTER_NAME><REF_FRAME>TEME</REF_FRAME><TIME_SYSTEM>UTC</TIME_SYSTEM><MEAN_ELEMENT_THEORY>SGP4</MEAN_ELEMENT_THEORY></metadata><data><meanElements><EPOCH>2025-08-06T22:41:25.533024</EPOCH><MEAN_MOTION>15.36787118</MEAN_MOTION><ECCENTRICITY>.00017898</ECCENTRICITY><INCLINATION>51.8775</INCLINATION><RA_OF_ASC_NODE>116.1755</RA_OF_ASC_NODE><ARG_OF_PERICENTER>240.6657</ARG_OF_PERICENTER><MEAN_ANOMALY>119.4151</MEAN_ANOMALY></meanElements><tleParameters><EPHEMERIS_TYPE>0</EPHEMERIS_TYPE><CLASSIFICATION_TYPE>U</CLASSIFICATION_TYPE><NORAD_CAT_ID>64513</NORAD_CAT_ID><ELEMENT_SET_NO>999</ELEMENT_SET_NO><REV_AT_EPOCH>808</REV_AT_EPOCH><BSTAR>.42266515E-3</BSTAR><MEAN_MOTION_DOT>.15073E-3</MEAN_MOTION_DOT><MEAN_MOTION_DDOT>0</MEAN_MOTION_DDOT></tleParameters></data></segment></body></omm>
<omm id="CCSDS_OMM_VERS" version="2.0">
<header><CREATION_DATE/><ORIGINATOR/></header><body><segment><metadata><OBJECT_NAME>KUIPER-00054</OBJECT_NAME><OBJECT_ID>2025-134Q</OBJECT_ID><CENTER_NAME>EARTH</CENTER_NAME><REF_FRAME>TEME</REF_FRAME><TIME_SYSTEM>UTC</TIME_SYSTEM><MEAN_ELEMENT_THEORY>SGP4</MEAN_ELEMENT_THEORY></metadata><data><meanElements><EPOCH>2025-08-06T21:16:17.731776</EPOCH><MEAN_MOTION>15.36577662</MEAN_MOTION><ECCENTRICITY>.00025787</ECCENTRICITY><INCLINATION>51.8763</INCLINATION><RA_OF_ASC_NODE>116.5262</RA_OF_ASC_NODE><ARG_OF_PERICENTER>250.2695</ARG_OF_PERICENTER><MEAN_ANOMALY>109.8013</MEAN_ANOMALY></meanElements><tleParameters><EPHEMERIS_TYPE>0</EPHEMERIS_TYPE><CLASSIFICATION_TYPE>U</CLASSIFICATION_TYPE><NORAD_CAT_ID>64514</NORAD_CAT_ID><ELEMENT_SET_NO>999</ELEMENT_SET_NO><REV_AT_EPOCH>807</REV_AT_EPOCH><BSTAR>.94763538E-3</BSTAR><MEAN_MOTION_DOT>.34132E-3</MEAN_MOTION_DOT><MEAN_MOTION_DDOT>0</MEAN_MOTION_DDOT></tleParameters></data></segment></body></omm>
<omm id="CCSDS_OMM_VERS" version="2.0">
<header><CREATION_DATE/><ORIGINATOR/></header><body><segment><metadata><OBJECT_NAME>KUIPER-00055</OBJECT_NAME><OBJECT_ID>2025-134R</OBJECT_ID><CENTER_NAME>EARTH</CENTER_NAME><REF_FRAME>TEME</REF_FRAME><TIME_SYSTEM>UTC</TIME_SYSTEM><MEAN_ELEMENT_THEORY>SGP4</MEAN_ELEMENT_THEORY></metadata><data><meanElements><EPOCH>2025-08-06T17:42:15.801696</EPOCH><MEAN_MOTION>15.37280506</MEAN_MOTION><ECCENTRICITY>.00007213</ECCENTRICITY><INCLINATION>51.8773</INCLINATION><RA_OF_ASC_NODE>117.0368</RA_OF_ASC_NODE><ARG_OF_PERICENTER>220.3475</ARG_OF_PERICENTER><MEAN_ANOMALY>139.7459</MEAN_ANOMALY></meanElements><tleParameters><EPHEMERIS_TYPE>0</EPHEMERIS_TYPE><CLASSIFICATION_TYPE>U</CLASSIFICATION_TYPE><NORAD_CAT_ID>64515</NORAD_CAT_ID><ELEMENT_SET_NO>999</ELEMENT_SET_NO><REV_AT_EPOCH>805</REV_AT_EPOCH><BSTAR>.11213867E-2</BSTAR><MEAN_MOTION_DOT>.41435E-3</MEAN_MOTION_DOT><MEAN_MOTION_DDOT>0</MEAN_MOTION_DDOT></tleParameters></data></segment></body></omm>
<omm id="CCSDS_OMM_VERS" version="2.0">
<header><CREATION_DATE/><ORIGINATOR/></header><body><segment><metadata><OBJECT_NAME>KUIPER-00056</OBJECT_NAME><OBJECT_ID>2025-134S</OBJECT_ID><CENTER_NAME>EARTH</CENTER_NAME><REF_FRAME>TEME</REF_FRAME><TIME_SYSTEM>UTC</TIME_SYSTEM><MEAN_ELEMENT_THEORY>SGP4</MEAN_ELEMENT_THEORY></metadata><data><meanElements><EPOCH>2025-08-06T21:25:43.955040</EPOCH><MEAN_MOTION>15.36345240</MEAN_MOTION><ECCENTRICITY>.00028921</ECCENTRICITY><INCLINATION>51.8750</INCLINATION><RA_OF_ASC_NODE>116.5615</RA_OF_ASC_NODE><ARG_OF_PERICENTER>256.4593</ARG_OF_PERICENTER><MEAN_ANOMALY>103.6071</MEAN_ANOMALY></meanElements><tleParameters><EPHEMERIS_TYPE>0</EPHEMERIS_TYPE><CLASSIFICATION_TYPE>U</CLASSIFICATION_TYPE><NORAD_CAT_ID>64516</NORAD_CAT_ID><ELEMENT_SET_NO>999</ELEMENT_SET_NO><REV_AT_EPOCH>807</REV_AT_EPOCH><BSTAR>.81027038E-3</BSTAR><MEAN_MOTION_DOT>.28889E-3</MEAN_MOTION_DOT><MEAN_MOTION_DDOT>0</MEAN_MOTION_DDOT></tleParameters></data></segment></body></omm>
<omm id="CCSDS_OMM_VERS" version="2.0">
<header><CREATION_DATE/><ORIGINATOR/></header><body><segment><metadata><OBJECT_NAME>KUIPER-00057</OBJECT_NAME><OBJECT_ID>2025-134T</OBJECT_ID><CENTER_NAME>EARTH</CENTER_NAME><REF_FRAME>TEME</REF_FRAME><TIME_SYSTEM>UTC</TIME_SYSTEM><MEAN_ELEMENT_THEORY>SGP4</MEAN_ELEMENT_THEORY></metadata><data><meanElements><EPOCH>2025-08-06T22:03:10.209888</EPOCH><MEAN_MOTION>15.35016685</MEAN_MOTION><ECCENTRICITY>.00064598</ECCENTRICITY><INCLINATION>51.8718</INCLINATION><RA_OF_ASC_NODE>116.7157</RA_OF_ASC_NODE><ARG_OF_PERICENTER>267.0076</ARG_OF_PERICENTER><MEAN_ANOMALY>93.0170</MEAN_ANOMALY></meanElements><tleParameters><EPHEMERIS_TYPE>0</EPHEMERIS_TYPE><CLASSIFICATION_TYPE>U</CLASSIFICATION_TYPE><NORAD_CAT_ID>64517</NORAD_CAT_ID><ELEMENT_SET_NO>999</ELEMENT_SET_NO><REV_AT_EPOCH>807</REV_AT_EPOCH><BSTAR>.7431522E-3</BSTAR><MEAN_MOTION_DOT>.2535E-3</MEAN_MOTION_DOT><MEAN_MOTION_DDOT>0</MEAN_MOTION_DDOT></tleParameters></data></segment></body></omm>
<omm id="CCSDS_OMM_VERS" version="2.0">
<header><CREATION_DATE/><ORIGINATOR/></header><body><segment><metadata><OBJECT_NAME>KUIPER-00058</OBJECT_NAME><OBJECT_ID>2025-134U</OBJECT_ID><CENTER_NAME>EARTH</CENTER_NAME><REF_FRAME>TEME</REF_FRAME><TIME_SYSTEM>UTC</TIME_SYSTEM><MEAN_ELEMENT_THEORY>SGP4</MEAN_ELEMENT_THEORY></metadata><data><meanElements><EPOCH>2025-08-06T21:39:39.463776</EPOCH><MEAN_MOTION>15.36076522</MEAN_MOTION><ECCENTRICITY>.00045203</ECCENTRICITY><INCLINATION>51.8728</INCLINATION><RA_OF_ASC_NODE>116.6209</RA_OF_ASC_NODE><ARG_OF_PERICENTER>265.9347</ARG_OF_PERICENTER><MEAN_ANOMALY>94.1122</MEAN_ANOMALY></meanElements><tleParameters><EPHEMERIS_TYPE>0</EPHEMERIS_TYPE><CLASSIFICATION_TYPE>U</CLASSIFICATION_TYPE><NORAD_CAT_ID>64518</NORAD_CAT_ID><ELEMENT_SET_NO>999</ELEMENT_SET_NO><REV_AT_EPOCH>807</REV_AT_EPOCH><BSTAR>.87008356E-3</BSTAR><MEAN_MOTION_DOT>.30794E-3</MEAN_MOTION_DOT><MEAN_MOTION_DDOT>0</MEAN_MOTION_DDOT></tleParameters></data></segment></body></omm>
<omm id="CCSDS_OMM_VERS" version="2.0">
<header><CREATION_DATE/><ORIGINATOR/></header><body><segment><metadata><OBJECT_NAME>KUIPER-00059</OBJECT_NAME><OBJECT_ID>2025-134V</OBJECT_ID><CENTER_NAME>EARTH</CENTER_NAME><REF_FRAME>TEME</REF_FRAME><TIME_SYSTEM>UTC</TIME_SYSTEM><MEAN_ELEMENT_THEORY>SGP4</MEAN_ELEMENT_THEORY></metadata><data><meanElements><EPOCH>2025-08-06T22:26:24.879552</EPOCH><MEAN_MOTION>15.37153482</MEAN_MOTION><ECCENTRICITY>.00022413</ECCENTRICITY><INCLINATION>51.8781</INCLINATION><RA_OF_ASC_NODE>116.1059</RA_OF_ASC_NODE><ARG_OF_PERICENTER>198.6839</ARG_OF_PERICENTER><MEAN_ANOMALY>161.4066</MEAN_ANOMALY></meanElements><tleParameters><EPHEMERIS_TYPE>0</EPHEMERIS_TYPE><CLASSIFICATION_TYPE>U</CLASSIFICATION_TYPE><NORAD_CAT_ID>64519</NORAD_CAT_ID><ELEMENT_SET_NO>999</ELEMENT_SET_NO><REV_AT_EPOCH>808</REV_AT_EPOCH><BSTAR>.79522826E-3</BSTAR><MEAN_MOTION_DOT>.29101E-3</MEAN_MOTION_DOT><MEAN_MOTION_DDOT>0</MEAN_MOTION_DDOT></tleParameters></data></segment></body></omm>
<omm id="CCSDS_OMM_VERS" version="2.0">
<header><CREATION_DATE/><ORIGINATOR/></header><body><segment><metadata><OBJECT_NAME>KUIPER-00060</OBJECT_NAME><OBJECT_ID>2025-134W</OBJECT_ID><CENTER_NAME>EARTH</CENTER_NAME><REF_FRAME>TEME</REF_FRAME><TIME_SYSTEM>UTC</TIME_SYSTEM><MEAN_ELEMENT_THEORY>SGP4</MEAN_ELEMENT_THEORY></metadata><data><meanElements><EPOCH>2025-08-06T22:35:10.400640</EPOCH><MEAN_MOTION>15.36986493</MEAN_MOTION><ECCENTRICITY>.00020783</ECCENTRICITY><INCLINATION>51.8764</INCLINATION><RA_OF_ASC_NODE>116.1467</RA_OF_ASC_NODE><ARG_OF_PERICENTER>208.5567</ARG_OF_PERICENTER><MEAN_ANOMALY>151.5306</MEAN_ANOMALY></meanElements><tleParameters><EPHEMERIS_TYPE>0</EPHEMERIS_TYPE><CLASSIFICATION_TYPE>U</CLASSIFICATION_TYPE><NORAD_CAT_ID>64520</NORAD_CAT_ID><ELEMENT_SET_NO>999</ELEMENT_SET_NO><REV_AT_EPOCH>807</REV_AT_EPOCH><BSTAR>.58297627E-3</BSTAR><MEAN_MOTION_DOT>.21091E-3</MEAN_MOTION_DOT><MEAN_MOTION_DDOT>0</MEAN_MOTION_DDOT></tleParameters></data></segment></body></omm>

</ndm>
